GALAXY 25 (G-25)        
1 24812U 97026A   24157.55150424 -.00000093  00000+0  00000+0 0  9997
2 24812   5.5120  76.2361 0012125 346.1894 220.1150  0.99094454 98870
INTELSAT 5 (IS-5)       
1 24916U 97046A   24157.52851545 -.00000068  00000+0  00000+0 0  9995
2 24916   8.7778  55.5717 0002161  61.8312 133.4411  1.00272105 98183
GALAXY 11 (G-11)        
1 26038U 99071A   24157.53156777 -.00000055  00000+0  00000+0 0  9994
2 26038   4.8266  79.4091 0000198 268.5191 264.1600  1.00271539 89641
INTELSAT 9 (IS-9)       
1 26451U 00043A   24156.98946919  .00000013  00000+0  00000+0 0  9990
2 26451   8.7620  55.7709 0002034  26.0764 169.6346  1.00377474 36704
INTELSAT 1R (IS-1R)     
1 26608U 00072A   24157.55466090 -.00000141  00000+0  00000+0 0  9990
2 26608   6.2386  72.8414 0000056  20.1855 158.2132  1.00271600 33888
INTELSAT 10 (IS-10)     
1 26766U 01019A   24157.62234003 -.00000365  00000+0  00000+0 0  9990
2 26766   7.2981  66.7639 0002908  16.9820 156.3816  1.00132146 38186
INTELSAT 901 (IS-901)   
1 26824U 01024A   24157.19845674 -.00000199  00000+0  00000+0 0  9990
2 26824   0.0513 122.8973 0000420 297.6132 237.5560  1.00269453 15544
INTELSAT 902 (IS-902)   
1 26900U 01039A   24157.19393156 -.00000282  00000+0  00000+0 0  9997
2 26900   4.2318  80.7779 0004630  18.0802 174.9926  1.00271642 83335
INTELSAT 904 (IS-904)   
1 27380U 02007A   24157.48427087 -.00000214  00000+0  00000+0 0  9994
2 27380   5.0522  77.9752 0002693   8.8414 312.4034  1.00271478 44328
DIRECTV 5 (TEMPO 1)     
1 27426U 02023A   24157.60738900 -.00000055  00000+0  00000+0 0  9999
2 27426   2.9729  84.5787 0003330   0.6258 277.8461  1.00270989 80684
INTELSAT 905 (IS-905)   
1 27438U 02027A   24157.19897888 -.00000185  00000+0  00000+0 0  9995
2 27438   4.8770  78.6373 0002370 346.2242 236.3737  1.00271022 43925
GALAXY 3C (G-3C)        
1 27445U 02030A   24157.47130450 -.00000150  00000+0  00000+0 0  9995
2 27445   1.8150  86.9633 0003065  34.3467 207.9004  1.00271777 80513
INTELSAT 906 (IS-906)   
1 27513U 02041A   24157.35979095  .00000014  00000+0  00000+0 0  9994
2 27513   3.9076  82.0263 0003894 358.5106   7.4064  1.00273399 79593
GALAXY 23 (G-23)        
1 27854U 03034A   24157.59917959  .00000015  00000+0  00000+0 0  9993
2 27854   1.2768  89.1843 0002924 357.6847 262.4739  1.00273188 76301
GALAXY 13 (HORIZONS-1)  
1 27954U 03044A   24157.44133191  .00000136  00000+0  00000+0 0  9991
2 27954   0.0409  88.8355 0000846 273.1342 261.2501  1.00268682 39135
INTELSAT 10-02          
1 28358U 04022A   24157.34682457 -.00000009  00000+0  00000+0 0  9990
2 28358   0.0183   5.8912 0000907  25.1656 347.0491  1.00266784 73110
XM-3 (RHYTHM)           
1 28626U 05008A   24157.40395698 -.00000201  00000+0  00000+0 0  9992
2 28626   0.0132 266.6199 0004395 320.2015  87.7482  1.00269303 35182
DIRECTV 8               
1 28659U 05019A   24157.60039090  .00000004  00000+0  00000+0 0  9993
2 28659   0.0187 333.9374 0002889 110.1251 267.5449  1.00272364 69634
GALAXY 28 (G-28)        
1 28702U 05022A   24157.47243579 -.00000183  00000+0  00000+0 0  9999
2 28702   1.3811  88.0789 0000923 214.1124  33.2852  1.00271107 69393
GALAXY 14 (G-14)        
1 28790U 05030A   24157.21046587  .00000157  00000+0  00000+0 0  9997
2 28790   3.1013  83.9728 0001161 339.6565 299.1717  1.00274216 68866
SPACEWAY 2              
1 28903U 05046B   24157.58099938  .00000104  00000+0  00000+0 0  9990
2 28903   3.5897  80.4332 0000281 258.9406 345.3697  1.00271366 43900
GALAXY 16 (G-16)        
1 29236U 06023A   24157.61851681 -.00000123  00000+0  00000+0 0  9993
2 29236   0.0576 123.4689 0002714 316.6179 298.0903  1.00269933 65535
DIRECTV 9S              
1 29494U 06043A   24157.61713431 -.00000110  00000+0  00000+0 0  9997
2 29494   0.5017  89.5882 0002654 353.8631 292.0336  1.00271138 43947
GALAXY 17 (G-17)        
1 31307U 07016B   24157.47321899 -.00000203  00000+0  00000+0 0  9994
2 31307   1.0884  89.5109 0003853   7.4022 242.8120  1.00271050 62365
DIRECTV 10              
1 31862U 07032A   24157.61578596 -.00000100  00000+0  00000+0 0  9998
2 31862   0.0083 254.8276 0000301 333.4086 145.1837  1.00271551 38156
INTELSAT 11 (IS-11)     
1 32253U 07044B   24157.40988306 -.00000266  00000+0  00000+0 0  9990
2 32253   1.6350  87.9298 0002905 353.8621 277.0751  1.00271032 61056
HORIZONS-2              
1 32388U 07063B   24157.47548159 -.00000250  00000+0  00000+0 0  9998
2 32388   0.6826  89.7945 0001722 340.5656 281.4081  1.00271841 60375
DIRECTV 11              
1 32729U 08013A   24157.48788262 -.00000122  00000+0  00000+0 0  9993
2 32729   0.0554 135.8026 0000768  31.1430 163.8921  1.00269926 38159
GALAXY 18 (G-18)        
1 32951U 08024A   24157.59640240  .00000028  00000+0  00000+0 0  9991
2 32951   0.0179 325.7615 0002780 107.2450 273.1958  1.00270285 38410
INTELSAT 25 (IS-25)     
1 33153U 08034A   24157.48392278 -.00000221  00000+0  00000+0 0  9996
2 33153   0.7903  89.4118 0002934 355.4356 312.2518  1.00270874 58257
GALAXY 19 (G-19)        
1 33376U 08045A   24157.39748388 -.00000136  00000+0  00000+0 0  9997
2 33376   0.0180 356.0253 0002643  82.5025 221.8646  1.00270211 57469
FM-5                    
1 35493U 09034A   24157.44455646 -.00000197  00000+0  00000+0 0  9993
2 35493   0.0163 304.2264 0001186 304.3825  79.6380  1.00270526 39208
INTELSAT 14 (IS-14)     
1 36097U 09064A   24157.19497583 -.00000270  00000+0  00000+0 0  9997
2 36097   0.0124 312.0374 0002491 140.2355 187.0377  1.00271759 53250
INTELSAT 15 (IS-15)     
1 36106U 09067A   24157.57828156 -.00000183  00000+0  00000+0 0  9990
2 36106   0.0194  11.5436 0002114  75.2411 101.0344  1.00271799 33791
DIRECTV 12              
1 36131U 09075A   24157.48556616 -.00000100  00000+0  00000+0 0  9995
2 36131   0.0146  86.7943 0000452 250.5985 349.0962  1.00269189 39123
INTELSAT 16 (IS-16)     
1 36397U 10006A   24157.40923105 -.00000241  00000+0  00000+0 0  9994
2 36397   0.0125   0.0113 0002093 106.4535 218.9670  1.00270595 52213
XM-5                    
1 37185U 10053A   24157.60393736 -.00000020  00000+0  00000+0 0  9990
2 37185   0.0137  31.5689 0000388 214.1194 111.0427  1.00270030 50048
INTELSAT 17 (IS-17)     
1 37238U 10065B   24157.58004924  .00000001  00000+0  00000+0 0  9995
2 37238   0.0199 339.7147 0002819 119.5459  70.0416  1.00271855 45806
INTELSAT NEW DAWN       
1 37392U 11016A   24157.18938480  .00000159  00000+0  00000+0 0  9996
2 37392   0.0280  85.8997 0001263 359.8350 269.3522  1.00270340 45844
INTELSAT 18 (IS-18)     
1 37834U 11056A   24157.59748466  .00000056  00000+0  00000+0 0  9995
2 37834   0.0241 354.4028 0001793  98.4644 196.7358  1.00272044 46374
INTELSAT 22 (IS-22)     
1 38098U 12011A   24157.57601899 -.00000057  00000+0  00000+0 0  9998
2 38098   0.0086  48.0260 0002022  37.5515  88.3889  1.00273268 44377
INTELSAT 19 (IS-19)     
1 38356U 12030A   24157.59469994 -.00000053  00000+0  00000+0 0  9992
2 38356   0.0171 334.9427 0002783 105.1471 194.5223  1.00273443 43004
INTELSAT 20 (IS-20)     
1 38740U 12043A   24157.21751470 -.00000020  00000+0  00000+0 0  9999
2 38740   0.0046 130.3860 0000802  40.1784 230.3517  1.00263970 43397
INTELSAT 21 (IS-21)     
1 38749U 12045A   24157.12081712 -.00000281  00000+0  00000+0 0  9994
2 38749   0.0476 104.2806 0001643 337.2014 158.0591  1.00271163 43080
INTELSAT 23 (IS-23)     
1 38867U 12057A   24156.62052554 -.00000280  00000+0  00000+0 0  9993
2 38867   0.0207 249.3153 0000347  38.2219 136.4057  1.00281289 42495
FM-6                    
1 39360U 13058A   24157.60287867 -.00000014  00000+0  00000+0 0  9995
2 39360   0.0038   1.0004 0000434 284.7028  69.6834  1.00269652 38627
INTELSAT 30 (IS-30)     
1 40271U 14062A   24156.99493627 -.00000147  00000+0  00000+0 0  9995
2 40271   0.0107 346.7839 0001611 347.9839 182.2655  1.00270189 35157
DIRECTV 14              
1 40333U 14078B   24157.61851649 -.00000122  00000+0  00000+0 0  9996
2 40333   0.0108 313.8979 0000239 345.7487  78.3092  1.00271235 34621
DIRECTV 15              
1 40663U 15026A   24157.61578531 -.00000099  00000+0  00000+0 0  9995
2 40663   0.0583  96.5636 0000389 143.7076 133.0725  1.00270299 33030
SKY MEXICO-1            
1 40664U 15026B   24157.40772421 -.00000231  00000+0  00000+0 0  9995
2 40664   0.0183   1.8013 0002293  97.5889 222.9397  1.00271702 33010
INTELSAT 34 (IS-34)     
1 40874U 15039A   24157.35663024 -.00000282  00000+0  00000+0 0  9990
2 40874   0.0224   1.0911 0000585 327.8576 358.2182  1.00270887 32187
INTELSAT 31 (IS-31)     
1 41581U 16035A   24155.35796334 -.00000146  00000+0  00000+0 0  9991
2 41581   0.0108  14.0668 0001209 179.0284  93.0136  1.00270556 29232
INTELSAT 36 (IS-36)     
1 41747U 16053A   24157.43224787 -.00000022  00000+0  00000+0 0  9997
2 41747   0.0125   1.2655 0001900 357.0585 120.1215  1.00270960 28518
INTELSAT 33E (IS-33E)   
1 41748U 16053B   24157.21586127  .00000052  00000+0  00000+0 0  9995
2 41748   0.0049  57.6530 0001535  32.0518 302.1353  1.00273405 28805
INTELSAT 32E (IS-32E)   
1 41945U 17007B   24157.48157317 -.00000266  00000+0  00000+0 0  9996
2 41945   0.0163  16.3185 0000419 290.2773  77.9777  1.00269533 26789
INTELSAT 35E (IS-35E)   
1 42818U 17041A   24156.76765632 -.00000234  00000+0  00000+0 0  9994
2 42818   0.0144  28.7846 0001557  42.1934  64.5694  1.00272476 25370
INTELSAT 37E (IS-37E)   
1 42950U 17059A   24157.58432028 -.00000138  00000+0  00000+0 0  9994
2 42950   0.0187  20.1182 0002162  68.4315 358.2730  1.00270659 24633
AZERSPACE 2 (IS-38)     
1 43632U 18074A   24157.42746162  .00000139  00000+0  00000+0 0  9990
2 43632   0.0185  13.3775 0001121  70.7664   9.1765  1.00271941 21012
HORIZONS-3E             
1 43633U 18074B   24156.56854970 -.00000027  00000+0  00000+0 0  9999
2 43633   0.0471 188.9937 0000552  76.7941   1.3900  1.00268601 20890
AT&T T-16               
1 44333U 19034A   24157.61702646 -.00000112  00000+0  00000+0 0  9998
2 44333   0.0171 323.0966 0001380 335.0573  77.6304  1.00268948 18199
INTELSAT 39 (IS-39)     
1 44476U 19049B   24155.92410413  .00000037  00000+0  00000+0 0  9997
2 44476   0.0141 332.3384 0000311 309.8036   5.3357  1.00273310 17685
GALAXY 30 (G-30)        
1 46114U 20056C   24157.59522826  .00000040  00000+0  00000+0 0  9999
2 46114   0.0159  19.5459 0001905  50.7746 273.4471  1.00269779 13856
GALAXY 33 (G-33)        
1 54026U 22128A   24157.58715852  .00000082  00000+0  00000+0 0  9990
2 54026   0.0167   2.8289 0001574  71.6012 258.4421  1.00272960  6319
GALAXY 34 (G-34)        
1 54027U 22128B   24157.59111539  .00000062  00000+0  00000+0 0  9992
2 54027   0.0210 335.9657 0001427 102.2049 260.2086  1.00271228  6477
GALAXY 31 (G-31)        
1 54243U 22153A   24157.59895944  .00000016  00000+0  00000+0 0  9998
2 54243   0.0144  25.6583 0001088  46.7731 276.7026  1.00272345  5697
GALAXY 32 (G-32)        
1 54244U 22153B   24157.40094086 -.00000171  00000+0  00000+0 0  9990
2 54244   0.0111 339.9992 0002182  55.9388 271.7035  1.00271320  5702
GALAXY 35 (G-35)        
1 54741U 22170A   24157.39943028 -.00000159  00000+0  00000+0 0  9994
2 54741   0.0154  16.9626 0001469  72.6448 215.3921  1.00271244  5452
GALAXY 36 (G-36)        
1 54742U 22170B   24156.62689453 -.00000181  00000+0  00000+0 0  9994
2 54742   0.0172 307.7200 0002662 141.6901 300.8157  1.00271379  5471
GALAXY 37 (G-37)        
1 57493U 23112A   24157.59245804  .00000051  00000+0  00000+0 0  9997
2 57493   0.0112 356.7818 0001756  77.7363 266.2743  1.00272943  3106
